STARLINK-37398          
1 69249U 26117M   26163.25003472  .00102894  00000+0  51944-3 0  9997
2 69249  53.1595 268.1690 0000988  61.4393  25.6911 15.80840300  3458
STARLINK-37499          
1 69250U 26117N   26163.25003472  .00131412  00000+0  62724-3 0  9995
2 69250  53.1592 268.1390 0001082 125.2778 336.3800 15.81949970  3459
STARLINK-37489          
1 69251U 26117P   26163.25003472  .00002635  00000+0  16095-4 0  9991
2 69251  53.1595 268.1184 0000779 121.3809 350.2970 15.81989731  3450
STARLINK-37434          
1 69252U 26117Q   26163.25003472 -.00014908  00000+0 -68403-4 0  9990
2 69252  53.1591 268.0828 0001096  92.5974  36.0076 15.81993875  3388
STARLINK-37368          
1 69253U 26117R   26163.25003472  .00098932  00000+0  47447-3 0  9992
2 69253  53.1592 268.0031 0000908  59.0630 107.9722 15.81965882  3455
STARLINK-37517          
1 69254U 26117S   26163.25003472  .00160167  00000+0  76176-3 0  9994
2 69254  53.1589 267.9878 0001235  62.0938 112.4620 15.81934062  3452
STARLINK-37378          
1 69255U 26117T   26163.25003472  .00153124  00000+0  72875-3 0  9992
2 69255  53.1593 267.9835 0000915  66.3426 110.0984 15.81941841  3375
STARLINK-37396          
1 69256U 26117U   26163.25003472  .00025082  00000+0  12375-3 0  9993
2 69256  53.1586 267.9536 0000723  65.5738 124.8308 15.81986282  3450
STARLINK-37508          
1 69257U 26117V   26163.25003472  .00140787  00000+0  70650-3 0  9994
2 69257  53.1594 267.9376 0001047  88.3608 109.6478 15.80834776  3370
STARLINK-37276          
1 69258U 26117W   26163.25003472 -.01912569  00000+0 -95680-2 0  9992
2 69258  53.1561 267.6271 0000830  78.3515 268.8834 15.84023802  3379
STARLINK-37518          
1 69259U 26117X   26163.25003472 -.01186130  00000+0 -64856-2 0  9991
2 69259  53.1570 267.6349 0001181 101.2102 242.8040 15.81719488  3385
STARLINK-37478          
1 69260U 26117Y   26163.25003472 -.01554486  00000+0 -84244-2 0  9999
2 69260  53.1569 267.6385 0000732  93.3185 248.9821 15.82214437  3387
STARLINK-37506          
1 69261U 26117Z   26163.25003472 -.00589020  00000+0 -31290-2 0  9994
2 69261  53.1568 267.6305 0001007  86.0322 259.7418 15.81282043  3386
STARLINK-37503          
1 69262U 26117AA  26163.25003472 -.00421404  00000+0 -22090-2 0  9994
2 69262  53.1574 267.6269 0001132  90.0478 257.2690 15.81146260  3384
STARLINK-37502          
1 69263U 26117AB  26163.25003472 -.01179298  00000+0 -64434-2 0  9995
2 69263  53.1574 267.6212 0001083  91.8851 258.0247 15.81721315  3389
STARLINK-37486          
1 69264U 26117AC  26163.25003472 -.01875710  00000+0 -97984-2 0  9994
2 69264  53.1563 267.6100 0000646  97.3774 257.9409 15.83065153  3384
STARLINK-37435          
1 69265U 26117AD  26163.25003472  .00079011  00000+0  40066-3 0  9992
2 69265  53.1577 267.6227 0001351  93.5324 255.3087 15.80847554  3387
STARLINK-37464          
1 69266U 26117AE  26163.25003472 -.00018086  00000+0 -83666-4 0  9994
2 69266  53.1607 267.6105 0001024  75.1573 279.1952 15.82015045  3385
KUIPER-00282            
1 69267U 26118A   26163.20767988  .00019145  00000+0  56919-3 0  9995
2 69267  51.8589  77.5514 0011859 162.0861 198.0545 15.34706423  3218
KUIPER-00383            
1 69268U 26118B   26163.20464435  .00018931  00000+0  56298-3 0  9999
2 69268  51.8590  77.5318 0010726 163.9620 196.1707 15.34717153  3219
KUIPER-00527            
1 69269U 26118C   26163.26636797 -.00030329  00000+0 -87012-3 0  9993
2 69269  51.8618  77.1977 0010193 158.1161 202.0262 15.35015140  3224
KUIPER-00562            
1 69270U 26118D   26163.24475703 -.00003833  00000+0 -89104-4 0  9996
2 69270  51.8717  77.0525 0001945 104.4453 255.6750 15.38499284  3221
KUIPER-00570            
1 69271U 26118E   26163.20358006  .00012431  00000+0  36665-3 0  9994
2 69271  51.8576  77.5245 0011821 166.9351 193.1943 15.35323316  3211
KUIPER-00572            
1 69272U 26118F   26163.19382115  .00014204  00000+0  39754-3 0  9993
2 69272  51.8670  77.4664 0007282 152.0782 208.0596 15.36880999  3217
KUIPER-00581            
1 69273U 26118G   26163.19656198  .00001210  00000+0  44176-4 0  9997
2 69273  51.8652  77.4846 0008698 153.2864 206.8572 15.36542811  3304
KUIPER-00584            
1 69274U 26118H   26163.20557211  .00015936  00000+0  46889-3 0  9998
2 69274  51.8604  77.5387 0011481 170.4091 189.7116 15.35178492  3212
KUIPER-00587            
1 69275U 26118J   26163.19606069  .00016737  00000+0  47116-3 0  9997
2 69275  51.8623  77.4801 0008298 158.9827 201.1501 15.36555516  3218
KUIPER-00590            
1 69276U 26118K   26163.25121913  .00017205  00000+0  46565-3 0  9993
2 69276  51.8683  77.1029 0004345 140.9446 219.1855 15.37779287  3227
KUIPER-00592            
1 69277U 26118L   26163.24936754  .00019179  00000+0  51380-3 0  9993
2 69277  51.8705  77.0892 0003686 120.4345 239.7006 15.38018761  3228
KUIPER-00593            
1 69278U 26118M   26163.24984780  .00018682  00000+0  50248-3 0  9996
2 69278  51.8710  77.0913 0004007 136.3550 223.7755 15.37912255  3281
