OBJECT_NAME,OBJECT_ID,EPOCH,MEAN_MOTION,ECCENTRICITY,INCLINATION,RA_OF_ASC_NODE,ARG_OF_PERICENTER,MEAN_ANOMALY,EPHEMERIS_TYPE,CLASSIFICATION_TYPE,NORAD_CAT_ID,ELEMENT_SET_NO,REV_AT_EPOCH,BSTAR,MEAN_MOTION_DOT,MEAN_MOTION_DDOT
STARLINK-37398,2026-117M,2026-06-12T06:00:02.999808,15.80840300,.00009886,53.1595,268.1690,61.4393,25.6911,0,U,69249,999,345,.51944005E-3,.102894E-2,0
STARLINK-37499,2026-117N,2026-06-12T06:00:02.999808,15.81949970,.00010822,53.1592,268.1390,125.2778,336.3800,0,U,69250,999,345,.62723514E-3,.131412E-2,0
STARLINK-37489,2026-117P,2026-06-12T06:00:02.999808,15.81989731,.00007799,53.1595,268.1184,121.3809,350.2970,0,U,69251,999,345,.16094804E-4,.2635E-4,0
STARLINK-37434,2026-117Q,2026-06-12T06:00:02.999808,15.81993875,.00010969,53.1591,268.0828,92.5974,36.0076,0,U,69252,999,338,-.68402638E-4,-.14908E-3,0
STARLINK-37368,2026-117R,2026-06-12T06:00:02.999808,15.81965882,.00009089,53.1592,268.0031,59.0630,107.9722,0,U,69253,999,345,.47447231E-3,.98932E-3,0
STARLINK-37517,2026-117S,2026-06-12T06:00:02.999808,15.81934062,.00012351,53.1589,267.9878,62.0938,112.4620,0,U,69254,999,345,.76176212E-3,.160167E-2,0
STARLINK-37378,2026-117T,2026-06-12T06:00:02.999808,15.81941841,.00009155,53.1593,267.9835,66.3426,110.0984,0,U,69255,999,337,.72874711E-3,.153124E-2,0
STARLINK-37396,2026-117U,2026-06-12T06:00:02.999808,15.81986282,.00007238,53.1586,267.9536,65.5738,124.8308,0,U,69256,999,345,.12375303E-3,.25082E-3,0
STARLINK-37508,2026-117V,2026-06-12T06:00:02.999808,15.80834776,.00010479,53.1594,267.9376,88.3608,109.6478,0,U,69257,999,337,.70650063E-3,.140787E-2,0
STARLINK-37276,2026-117W,2026-06-12T06:00:02.999808,15.84023802,.00008307,53.1561,267.6271,78.3515,268.8834,0,U,69258,999,337,-.95680064E-2,-.1912569E-1,0
STARLINK-37518,2026-117X,2026-06-12T06:00:02.999808,15.81719488,.00011812,53.1570,267.6349,101.2102,242.8040,0,U,69259,999,338,-.64856025E-2,-.118613E-1,0
STARLINK-37478,2026-117Y,2026-06-12T06:00:02.999808,15.82214437,.00007322,53.1569,267.6385,93.3185,248.9821,0,U,69260,999,338,-.84244074E-2,-.1554486E-1,0
STARLINK-37506,2026-117Z,2026-06-12T06:00:02.999808,15.81282043,.00010074,53.1568,267.6305,86.0322,259.7418,0,U,69261,999,338,-.31289726E-2,-.58902E-2,0
STARLINK-37503,2026-117AA,2026-06-12T06:00:02.999808,15.81146260,.00011324,53.1574,267.6269,90.0478,257.2690,0,U,69262,999,338,-.22089719E-2,-.421404E-2,0
STARLINK-37502,2026-117AB,2026-06-12T06:00:02.999808,15.81721315,.00010832,53.1574,267.6212,91.8851,258.0247,0,U,69263,999,338,-.64434416E-2,-.1179298E-1,0
STARLINK-37486,2026-117AC,2026-06-12T06:00:02.999808,15.83065153,.00006461,53.1563,267.6100,97.3774,257.9409,0,U,69264,999,338,-.97983728E-2,-.187571E-1,0
STARLINK-37435,2026-117AD,2026-06-12T06:00:02.999808,15.80847554,.00013511,53.1577,267.6227,93.5324,255.3087,0,U,69265,999,338,.40065505E-3,.79011E-3,0
STARLINK-37464,2026-117AE,2026-06-12T06:00:02.999808,15.82015045,.00010248,53.1607,267.6105,75.1573,279.1952,0,U,69266,999,338,-.83665711E-4,-.18086E-3,0
KUIPER-00282,2026-118A,2026-06-12T04:59:03.541632,15.34706423,.00118595,51.8589,77.5514,162.0861,198.0545,0,U,69267,999,321,.56919008E-3,.19145E-3,0
KUIPER-00383,2026-118B,2026-06-12T04:54:41.271840,15.34717153,.00107267,51.8590,77.5318,163.9620,196.1707,0,U,69268,999,321,.56298336E-3,.18931E-3,0
KUIPER-00527,2026-118C,2026-06-12T06:23:34.192608,15.35015140,.00101939,51.8618,77.1977,158.1161,202.0262,0,U,69269,999,322,-.87011834E-3,-.30329E-3,0
KUIPER-00562,2026-118D,2026-06-12T05:52:27.007392,15.38499284,.00019456,51.8717,77.0525,104.4453,255.6750,0,U,69270,999,322,-.89104319E-4,-.3833E-4,0
KUIPER-00570,2026-118E,2026-06-12T04:53:09.317184,15.35323316,.00118216,51.8576,77.5245,166.9351,193.1943,0,U,69271,999,321,.36664972E-3,.12431E-3,0
KUIPER-00572,2026-118F,2026-06-12T04:39:06.147360,15.36880999,.00072826,51.8670,77.4664,152.0782,208.0596,0,U,69272,999,321,.39753768E-3,.14204E-3,0
KUIPER-00581,2026-118G,2026-06-12T04:43:02.955072,15.36542811,.00086986,51.8652,77.4846,153.2864,206.8572,0,U,69273,999,330,.44176065E-4,.121E-4,0
KUIPER-00584,2026-118H,2026-06-12T04:56:01.430304,15.35178492,.00114817,51.8604,77.5387,170.4091,189.7116,0,U,69274,999,321,.46888775E-3,.15936E-3,0
KUIPER-00587,2026-118J,2026-06-12T04:42:19.643616,15.36555516,.00082985,51.8623,77.4801,158.9827,201.1501,0,U,69275,999,321,.47116152E-3,.16737E-3,0
KUIPER-00590,2026-118K,2026-06-12T06:01:45.332832,15.37779287,.00043453,51.8683,77.1029,140.9446,219.1855,0,U,69276,999,322,.46564519E-3,.17205E-3,0
KUIPER-00592,2026-118L,2026-06-12T05:59:05.355456,15.38018761,.00036863,51.8705,77.0892,120.4345,239.7006,0,U,69277,999,322,.51379635E-3,.19179E-3,0
KUIPER-00593,2026-118M,2026-06-12T05:59:46.849920,15.37912255,.00040077,51.8710,77.0913,136.3550,223.7755,0,U,69278,999,328,.50248465E-3,.18682E-3,0
